[
  {
    "name_en": "Ahmar",
    "name_mm": "ဘိုကလေး",
    "name_zg": "ဘိုကေလး",
    "region_state": "ayeyarwady"
  },
  {
    "name_en": "Bogale",
    "name_mm": "ဘိုကလေး",
    "name_zg": "ဘိုကေလး",
    "region_state": "ayeyarwady"
  },
  {
    "name_en": "Danuphyu",
    "name_mm": "ဓနုဖြူ",
    "name_zg": "ဓႏုျဖဴ",
    "region_state": "ayeyarwady"
  },
  {
    "name_en": "Dedaye",
    "name_mm": "ဒေးဒရဲ",
    "name_zg": "ေဒးဒရဲ",
    "region_state": "ayeyarwady"
  },
  {
    "name_en": "Einme",
    "name_mm": "အိမ်မဲ",
    "name_zg": "အိမ္မဲ",
    "region_state": "ayeyarwady"
  },
  {
    "name_en": "Hainggyikyun",
    "name_mm": "ဟိုင်းကြီးကျွန်း",
    "name_zg": "ဟိုင္းႀကီးကၽြန္း",
    "region_state": "ayeyarwady"
  },
  {
    "name_en": "Hinthada",
    "name_mm": "ဟင်္သာတ",
    "name_zg": "ဟသၤာတ",
    "region_state": "ayeyarwady"
  },
  {
    "name_en": "Ingapu",
    "name_mm": "အင်္ဂပူ",
    "name_zg": "အဂၤပူ",
    "region_state": "ayeyarwady"
  },
  {
    "name_en": "Kangyidaunk",
    "name_mm": "ကန်ကြီးထောင့်",
    "name_zg": "ကန္ႀကီးေထာင့္",
    "region_state": "ayeyarwady"
  },
  {
    "name_en": "Kyaiklat",
    "name_mm": "ကျိုက်လတ်",
    "name_zg": "က်ိဳက္လတ္",
    "region_state": "ayeyarwady"
  },
  {
    "name_en": "Kyangin",
    "name_mm": "ကြံခင်း",
    "name_zg": "ႀကံခင္း",
    "region_state": "ayeyarwady"
  },
  {
    "name_en": "Kyaunggon",
    "name_mm": "ကျောင်းကုန်း",
    "name_zg": "ေက်ာင္းကုန္း",
    "region_state": "ayeyarwady"
  },
  {
    "name_en": "Kyonpyaw",
    "name_mm": "ကျုံပျော်",
    "name_zg": "က်ဳံေပ်ာ္",
    "region_state": "ayeyarwady"
  },
  {
    "name_en": "Labutta",
    "name_mm": "လပွတ္တာ",
    "name_zg": "လပြတၱာ",
    "region_state": "ayeyarwady"
  },
  {
    "name_en": "Lemyethna",
    "name_mm": "လေးမျက်နှာ",
    "name_zg": "ေလးမ်က္ႏွာ",
    "region_state": "ayeyarwady"
  },
  {
    "name_en": "Ma Ubin",
    "name_mm": "မအူပင်",
    "name_zg": "မအူပင္",
    "region_state": "ayeyarwady"
  },
  {
    "name_en": "Mawlamyinegyun",
    "name_mm": "မော်လမြိုင်ကျွန်း",
    "name_zg": "ေမာ္လၿမိဳင္ကၽြန္း",
    "region_state": "ayeyarwady"
  },
  {
    "name_en": "Myanaung",
    "name_mm": "မြန်အောင်",
    "name_zg": "ျမန္ေအာင္",
    "region_state": "ayeyarwady"
  },
  {
    "name_en": "Myaungmya",
    "name_mm": "မြောင်းမြ",
    "name_zg": "ေျမာင္းျမ",
    "region_state": "ayeyarwady"
  },
  {
    "name_en": "Ngapudaw",
    "name_mm": "ငပုတော",
    "name_zg": "ငပုေတာ",
    "region_state": "ayeyarwady"
  },
  {
    "name_en": "Ngathaingchaung",
    "name_mm": "ငါးသိုင်းချောင်း",
    "name_zg": "ငါးသိုင္းေခ်ာင္း",
    "region_state": "ayeyarwady"
  },
  {
    "name_en": "Ngayokaung",
    "name_mm": "ငရုတ်ကောင်း",
    "name_zg": "င႐ုတ္ေကာင္း",
    "region_state": "ayeyarwady"
  },
  {
    "name_en": "Ngwehsaung",
    "name_mm": "ငွေဆောင်",
    "name_zg": "ေငြေဆာင္",
    "region_state": "ayeyarwady"
  },
  {
    "name_en": "Nyaungdon",
    "name_mm": "ညောင်တုန်း",
    "name_zg": "ေညာင္တုန္း",
    "region_state": "ayeyarwady"
  },
  {
    "name_en": "Pantanaw",
    "name_mm": "ပန်းတနော်",
    "name_zg": "ပန္းတေနာ္",
    "region_state": "ayeyarwady"
  },
  {
    "name_en": "Pathein",
    "name_mm": "ပုသိမ်",
    "name_zg": "ပုသိမ္",
    "region_state": "ayeyarwady"
  },
  {
    "name_en": "Pyapon",
    "name_mm": "ဖျာပုံ",
    "name_zg": "ဖ်ာပုံ",
    "region_state": "ayeyarwady"
  },
  {
    "name_en": "Pyinsalu",
    "name_mm": "ပြင်စလူ",
    "name_zg": "ျပင္စလူ",
    "region_state": "ayeyarwady"
  },
  {
    "name_en": "Shwethaungyan",
    "name_mm": "ရွှေသောင်ယံ",
    "name_zg": "ေ႐ႊေသာင္ယံ",
    "region_state": "ayeyarwady"
  },
  {
    "name_en": "Thabaung",
    "name_mm": "သာပေါင်း",
    "name_zg": "သာေပါင္း",
    "region_state": "ayeyarwady"
  },
  {
    "name_en": "Wakema",
    "name_mm": "ဝါးခယ်မ",
    "name_zg": "ဝါးခယ္မ",
    "region_state": "ayeyarwady"
  },
  {
    "name_en": "Yekyi",
    "name_mm": "ရေကြည်",
    "name_zg": "ေရၾကည္",
    "region_state": "ayeyarwady"
  },
  {
    "name_en": "Zalun",
    "name_mm": "ဇလွန်",
    "name_zg": "ဇလြန္",
    "region_state": "ayeyarwady"
  },
  {
    "name_en": "Aungmyin",
    "name_mm": "အောင်မြင်",
    "name_zg": "ေအာင္ျမင္",
    "region_state": "bago"
  },
  {
    "name_en": "Bago",
    "name_mm": "ပဲခူး",
    "name_zg": "ပဲခူး",
    "region_state": "bago"
  },
  {
    "name_en": "Daik U",
    "name_mm": "ဒိုက်ဦး",
    "name_zg": "ဒိုက္ဦး",
    "region_state": "bago"
  },
  {
    "name_en": "Gyobingauk",
    "name_mm": "ကျို့ပင်ကောက်",
    "region_state": "bago"
  },
  {
    "name_en": "Hpayargyi",
    "name_mm": "ဘုရားကြီး",
    "name_zg": "ဘုရားႀကီး",
    "region_state": "bago"
  },
  {
    "name_en": "Innma",
    "name_mm": "အင်းမ",
    "region_state": "bago"
  },
  {
    "name_en": "Intagaw",
    "name_mm": "အင်းတကော်",
    "region_state": "bago"
  },
  {
    "name_en": "Kanyutkwin",
    "name_mm": "ကညွတ်ကွင်း",
    "name_zg": "ကၫြတ္ကြင္း",
    "region_state": "bago"
  },
  {
    "name_en": "Kawa",
    "name_mm": "ကဝ",
    "name_zg": "ကဝ",
    "region_state": "bago"
  },
  {
    "name_en": "Kaytumadi",
    "name_mm": "ကေတုမတီ",
    "name_zg": "ေကတုမတီ",
    "region_state": "bago"
  },
  {
    "name_en": "Kyaukkyi",
    "name_mm": "ကျောက်ကြီး",
    "name_zg": "ေက်ာက္ႀကီး",
    "region_state": "bago"
  },
  {
    "name_en": "Kyauktaga",
    "name_mm": "ကျောက်တံခါး",
    "name_zg": "ေက်ာက္တံခါး",
    "region_state": "bago"
  },
  {
    "name_en": "Kywebwe",
    "name_mm": "ကျွဲပွဲ",
    "name_zg": "ကြၽဲပြဲ",
    "region_state": "bago"
  },
  {
    "name_en": "Letpadan",
    "name_mm": "လက်ပံတန်",
    "name_zg": "လက္ပံတန္",
    "region_state": "bago"
  },
  {
    "name_en": "Madauk",
    "name_mm": "မဒေါက်",
    "name_zg": "မေဒါက္",
    "region_state": "bago"
  },
  {
    "name_en": "Minhla",
    "name_mm": "မင်းလှ",
    "name_zg": "မင္းလွ",
    "region_state": "bago"
  },
  {
    "name_en": "Mone",
    "name_mm": "မုန်း",
    "name_zg": "မုန္း",
    "region_state": "bago"
  },
  {
    "name_en": "Monyo",
    "name_mm": "မိုးညို",
    "name_zg": "မိုးညိဳ",
    "region_state": "bago"
  },
  {
    "name_en": "Myohla",
    "name_mm": "မြို့လှ",
    "name_zg": "ၿမိဳ႕လွ",
    "region_state": "bago"
  },
  {
    "name_en": "Nattalin",
    "name_mm": "နတ်တလင်း",
    "name_zg": "နတ္တလင္း",
    "region_state": "bago"
  },
  {
    "name_en": "Natthangwin",
    "name_mm": "",
    "region_state": "bago"
  },
  {
    "name_en": "Nyaungbinthar",
    "name_mm": "ညောင်ပင်သာ",
    "name_zg": "ေညာင္ပင္သာ",
    "region_state": "bago"
  },
  {
    "name_en": "Nyaunglebin",
    "name_mm": "ညောင်လေးပင်",
    "name_zg": "ေညာင္ေလးပင္",
    "region_state": "bago"
  },
  {
    "name_en": "Okpho",
    "name_mm": "အုတ်ဖို",
    "name_zg": "အုတ္ဖို",
    "region_state": "bago"
  },
  {
    "name_en": "Okshipin",
    "name_mm": "အုတ်သျှစ်ပင်",
    "name_zg": "အုတ္သွ်စ္ပင္",
    "region_state": "bago"
  },
  {
    "name_en": "Oktwin",
    "name_mm": "အုတ်တွင်း",
    "name_zg": "အုတ္တြင္း",
    "region_state": "bago"
  },
  {
    "name_en": "ooethegone",
    "name_mm": "",
    "region_state": "bago"
  },
  {
    "name_en": "Padaung",
    "name_mm": "ပန်းတောင်း",
    "name_zg": "ပန္းေတာင္း",
    "region_state": "bago"
  },
  {
    "name_en": "Padigone",
    "name_mm": "ပုတီးကုန်း",
    "region_state": "bago"
  },
  {
    "name_en": "Paukkaung",
    "name_mm": "ပေါက်ခေါင်း",
    "region_state": "bago"
  },
  {
    "name_en": "Paungdale",
    "name_mm": "ပေါင်းတလည်",
    "name_zg": "ေပါင္းတလည္",
    "region_state": "bago"
  },
  {
    "name_en": "Paungde",
    "name_mm": "ပေါင်းတည်",
    "region_state": "bago"
  },
  {
    "name_en": "Peinzalot",
    "name_mm": "ပိန်းဇလုတ်",
    "region_state": "bago"
  },
  {
    "name_en": "Penwegon",
    "name_mm": "ပဲနွယ်ကုန်း",
    "name_zg": "ပဲႏြယ္ကုန္း",
    "region_state": "bago"
  },
  {
    "name_en": "Pyay",
    "name_mm": "ပြည်",
    "name_zg": "ျပည္",
    "region_state": "bago"
  },
  {
    "name_en": "Pyu",
    "name_mm": "ဖြူး",
    "name_zg": "ျဖဴး",
    "region_state": "bago"
  },
  {
    "name_en": "Pyuntaza",
    "name_mm": "ပြွန်တန်ဆာ",
    "name_zg": "ႁပြန္တန္ဆာ",
    "region_state": "bago"
  },
  {
    "name_en": "Shwedaung",
    "name_mm": "ရွှေတောင်",
    "name_zg": "ေ႐ႊေတာင္",
    "region_state": "bago"
  },
  {
    "name_en": "Shwegyin",
    "name_mm": "ရွှေကျင်",
    "name_zg": "ေ႐ႊက်င္",
    "region_state": "bago"
  },
  {
    "name_en": "Sinmeswe",
    "name_mm": "ဆင်မြှီးဆွဲ",
    "name_zg": "ဆင္ျမႇီးဆြဲ",
    "region_state": "bago"
  },
  {
    "name_en": "Sitkwin",
    "name_mm": "စစ်ကွင်း",
    "name_zg": "စစ္ကြင္း",
    "region_state": "bago"
  },
  {
    "name_en": "Swa",
    "name_mm": "ဆွာ",
    "name_zg": "ဆြာ",
    "region_state": "bago"
  },
  {
    "name_en": "Tantabin",
    "name_mm": "ထန်းတပင်",
    "name_zg": "ထန္းတပင္",
    "region_state": "bago"
  },
  {
    "name_en": "Tapun",
    "name_mm": "သာပေါင်း",
    "name_zg": "သာေပါင္း",
    "region_state": "bago"
  },
  {
    "name_en": "Taungoo",
    "name_mm": "တောင်ငူ",
    "name_zg": "ေတာင္ငူ",
    "region_state": "bago"
  },
  {
    "name_en": "Thagara",
    "name_mm": "သာဂရ",
    "name_zg": "သာဂရ",
    "region_state": "bago"
  },
  {
    "name_en": "Thanatpin",
    "name_mm": "သနပ်ပင်",
    "name_zg": "သနပ္ပင္",
    "region_state": "bago"
  },
  {
    "name_en": "Tharrawaddy",
    "name_mm": "သာယာဝတီ",
    "name_zg": "သာယာဝတီ",
    "region_state": "bago"
  },
  {
    "name_en": "Thegon",
    "name_mm": "သဲကုန်း",
    "name_zg": "သဲကုန္း",
    "region_state": "bago"
  },
  {
    "name_en": "Thonze",
    "name_mm": "သုံးဆယ်",
    "name_zg": "သုံးဆယ္",
    "region_state": "bago"
  },
  {
    "name_en": "Waw",
    "name_mm": "ဝေါ",
    "name_zg": "ေဝါ",
    "region_state": "bago"
  },
  {
    "name_en": "Yaeni",
    "name_mm": "ရေနီ",
    "name_zg": "ေရနီ",
    "region_state": "bago"
  },
  {
    "name_en": "Yedashe",
    "name_mm": "ရေတာ‌ရှည်",
    "name_zg": "ေရတာ‌ရွည္",
    "region_state": "bago"
  },
  {
    "name_en": "Zigon",
    "name_mm": "ဇီးကုန်း",
    "name_zg": "ဇီးကုန္း",
    "region_state": "bago"
  },
  {
    "name_en": "Cikha",
    "name_mm": "ကျီခါး",
    "name_zg": "က်ီခါး",
    "region_state": "chin"
  },
  {
    "name_en": "Falam",
    "name_mm": "ဖလမ်း",
    "name_zg": "ဖလမ္း",
    "region_state": "chin"
  },
  {
    "name_en": "Hakha",
    "name_mm": "ဟားခါး",
    "name_zg": "ဟားခါး",
    "region_state": "chin"
  },
  {
    "name_en": "Htantlang",
    "name_mm": "ထန်တလန်",
    "name_zg": "ထန္တလန္",
    "region_state": "chin"
  },
  {
    "name_en": "Kanpetlet",
    "name_mm": "ကန်ပက်လက်",
    "name_zg": "ကန္ပက္လက္",
    "region_state": "chin"
  },
  {
    "name_en": "Matupi",
    "name_mm": "မတူပီ",
    "name_zg": "မတူပီ",
    "region_state": "chin"
  },
  {
    "name_en": "Mindat",
    "name_mm": "မင်းတပ်",
    "name_zg": "မင္းတပ္",
    "region_state": "chin"
  },
  {
    "name_en": "Paletwa",
    "name_mm": "ပလက်ဝ",
    "name_zg": "ပလက္ဝ",
    "region_state": "chin"
  },
  {
    "name_en": "Reazu",
    "name_mm": "ရေဇွာ",
    "name_zg": "ေရဇြာ",
    "region_state": "chin"
  },
  {
    "name_en": "Rikhuadal",
    "name_mm": "",
    "region_state": "chin"
  },
  {
    "name_en": "Sami",
    "name_mm": "ဆမိ",
    "name_zg": "ဆမိ",
    "region_state": "chin"
  },
  {
    "name_en": "Tiddim",
    "name_mm": "တီးတိန်",
    "name_zg": "တီးတိန္",
    "region_state": "chin"
  },
  {
    "name_en": "Ton Zang",
    "name_mm": "တွန်းဇံ",
    "name_zg": "တြန္းဇံ",
    "region_state": "chin"
  },
  {
    "name_en": "Bhamo",
    "name_mm": "ဗန်းမော်",
    "name_zg": "ဗန္းေမာ္",
    "region_state": "kachin"
  },
  {
    "name_en": "Chipwi",
    "name_mm": "ချီဗွေ",
    "name_zg": "ခ်ီေဗြ",
    "region_state": "kachin"
  },
  {
    "name_en": "dotphoneyan",
    "name_mm": "",
    "region_state": "kachin"
  },
  {
    "name_en": "Hopin",
    "name_mm": "ဟိုပင်",
    "name_zg": "ဟိုပင္",
    "region_state": "kachin"
  },
  {
    "name_en": "Hpakant",
    "name_mm": "ဖားကန့်",
    "name_zg": "ဖားကန႔္",
    "region_state": "kachin"
  },
  {
    "name_en": "Hsadone",
    "name_mm": "ဆဒုံး",
    "name_zg": "ဆဒုံး",
    "region_state": "kachin"
  },
  {
    "name_en": "Hsawlaw",
    "name_mm": "ဆော့လော်",
    "name_zg": "ေဆာ့ေလာ္",
    "region_state": "kachin"
  },
  {
    "name_en": "Hsinbo",
    "name_mm": "ဆင်ဘို",
    "name_zg": "ဆင္ဘို",
    "region_state": "kachin"
  },
  {
    "name_en": "Injangyang",
    "name_mm": "အင်ဂျန်းယန်",
    "name_zg": "အင္ဂ်န္းယန္",
    "region_state": "kachin"
  },
  {
    "name_en": "Kamine",
    "name_mm": "ကာမိုင်း",
    "name_zg": "ကာမိုင္း",
    "region_state": "kachin"
  },
  {
    "name_en": "Kanpaikti",
    "name_mm": "ကန်ပိုက်ထီး",
    "name_zg": "ကန္ပိုက္ထီး",
    "region_state": "kachin"
  },
  {
    "name_en": "Kawnglanghpu",
    "name_mm": "ခေါင်လန်ဖူး",
    "name_zg": "ေခါင္လန္ဖူး",
    "region_state": "kachin"
  },
  {
    "name_en": "Lwegel",
    "name_mm": "လွယ်ကျယ်",
    "name_zg": "လြယ္က်ယ္",
    "region_state": "kachin"
  },
  {
    "name_en": "Machanbaw",
    "name_mm": "မချမ်းဘော",
    "name_zg": "မခ်မ္းေဘာ",
    "region_state": "kachin"
  },
  {
    "name_en": "Mansi",
    "name_mm": "မံစီ",
    "name_zg": "မံစီ",
    "region_state": "kachin"
  },
  {
    "name_en": "Mogaung",
    "name_mm": "မိုးကောင်း",
    "name_zg": "မိုးေကာင္း",
    "region_state": "kachin"
  },
  {
    "name_en": "Mohnyin",
    "name_mm": "မိုးညှင်း",
    "name_zg": "မိုးညႇင္း",
    "region_state": "kachin"
  },
  {
    "name_en": "Momauk",
    "name_mm": "မိုးမောက်",
    "name_zg": "မိုးေမာက္",
    "region_state": "kachin"
  },
  {
    "name_en": "Myitkyina",
    "name_mm": "မြစ်ကြီးနား",
    "name_zg": "ျမစ္ႀကီးနား",
    "region_state": "kachin"
  },
  {
    "name_en": "Myohla",
    "name_mm": "မြို့လှ",
    "name_zg": "ၿမိဳ႕လွ",
    "region_state": "kachin"
  },
  {
    "name_en": "Nogmung",
    "name_mm": "နောင်မွန်း",
    "name_zg": "ေနာင္မြန္း",
    "region_state": "kachin"
  },
  {
    "name_en": "Pannandin",
    "name_mm": "ပန်နန်",
    "name_zg": "ပန္နန္",
    "region_state": "kachin"
  },
  {
    "name_en": "Panwa",
    "name_mm": "ပန်ဝါ",
    "name_zg": "ပန္ဝါ",
    "region_state": "kachin"
  },
  {
    "name_en": "Putao",
    "name_mm": "ပူတာအို",
    "name_zg": "ပူတာအို",
    "region_state": "kachin"
  },
  {
    "name_en": "shinbwayyan",
    "name_mm": "",
    "region_state": "kachin"
  },
  {
    "name_en": "Shwegu",
    "name_mm": "ရွှေဂူ",
    "name_zg": "ေ႐ႊဂူ",
    "region_state": "kachin"
  },
  {
    "name_en": "Sumprabum",
    "name_mm": "ဆွန်ပရာဘွန်",
    "name_zg": "ဆြန္ပရာဘြန္",
    "region_state": "kachin"
  },
  {
    "name_en": "Tanai",
    "name_mm": "တနိုင်း",
    "name_zg": "တႏိုင္း",
    "region_state": "kachin"
  },
  {
    "name_en": "Waingmaw",
    "name_mm": "ဝိုင်းမော်",
    "name_zg": "ဝိုင္းေမာ္",
    "region_state": "kachin"
  },
  {
    "name_en": "Bawlakhe",
    "name_mm": "ဘော်လခဲ",
    "name_zg": "ေဘာ္လခဲ",
    "region_state": "kayar"
  },
  {
    "name_en": "Demoso",
    "name_mm": "ဒီမောဆိုး",
    "name_zg": "ဒီေမာဆိုး",
    "region_state": "kayar"
  },
  {
    "name_en": "Hpasawng",
    "name_mm": "ဖားဆောင်း",
    "name_zg": "ဖားေဆာင္း",
    "region_state": "kayar"
  },
  {
    "name_en": "Hpruso",
    "name_mm": "ဖရူးဆိုး",
    "name_zg": "ဖရူးဆိုး",
    "region_state": "kayar"
  },
  {
    "name_en": "Loikaw",
    "name_mm": "လွိုင်ကော်",
    "name_zg": "လြိဳင္ေကာ္",
    "region_state": "kayar"
  },
  {
    "name_en": "Mese",
    "name_mm": "မယ်ဆဲ",
    "name_zg": "မယ္ဆဲ",
    "region_state": "kayar"
  },
  {
    "name_en": "Shadaw",
    "name_mm": "ရှားတော",
    "name_zg": "ရွားေတာ",
    "region_state": "kayar"
  },
  {
    "name_en": "Ywathit",
    "name_mm": "ရွာသစ်",
    "name_zg": "႐ြာသစ္",
    "region_state": "kayar"
  },
  {
    "name_en": "Bawgali",
    "name_mm": "ဘောဂလိ",
    "name_zg": "ေဘာဂလိ",
    "region_state": "kayin"
  },
  {
    "name_en": "Hlaignbwe",
    "name_mm": "လှိုင်းဘွဲ့",
    "name_zg": "လႈိင္းဘြဲ႕",
    "region_state": "kayin"
  },
  {
    "name_en": "Hpa An",
    "name_mm": "ဘားအံ",
    "name_zg": "ဘားအံ",
    "region_state": "kayin"
  },
  {
    "name_en": "Hpapun",
    "name_mm": "ဖာပွန်",
    "name_zg": "ဖာပြန္",
    "region_state": "kayin"
  },
  {
    "name_en": "Kamamaung",
    "name_mm": "ကမမောင်း",
    "name_zg": "ကမေမာင္း",
    "region_state": "kayin"
  },
  {
    "name_en": "Kawkareik",
    "name_mm": "ကော့ကရိတ်",
    "name_zg": "ေကာ့ကရိတ္",
    "region_state": "kayin"
  },
  {
    "name_en": "Kyaidon",
    "name_mm": "ကျိုက်ဒုံ",
    "name_zg": "က်ိဳက္ဒုံ",
    "region_state": "kayin"
  },
  {
    "name_en": "Kyain Seikgyi",
    "name_mm": "ကြာအင်းဆိပ်ကြီး",
    "name_zg": "ၾကာအင္းဆိပ္ႀကီး",
    "region_state": "kayin"
  },
  {
    "name_en": "Leiktho",
    "name_mm": "လိပ်သို",
    "name_zg": "လိပ္သို",
    "region_state": "kayin"
  },
  {
    "name_en": "Myawaddy",
    "name_mm": "မြဝတီ",
    "name_zg": "ျမဝတီ",
    "region_state": "kayin"
  },
  {
    "name_en": "Paingkyon",
    "name_mm": "ပိုင်ကျုံ",
    "name_zg": "ပိုင္က်ဳံ",
    "region_state": "kayin"
  },
  {
    "name_en": "Payarthonezu",
    "name_mm": "ဘုရားသုံးဆူ",
    "name_zg": "ဘုရားသုံးဆူ",
    "region_state": "kayin"
  },
  {
    "name_en": "Shan Ywathit",
    "name_mm": "ရှမ်းရွာသစ်",
    "name_zg": "ရွမ္း႐ြာသစ္",
    "region_state": "kayin"
  },
  {
    "name_en": "Sugali",
    "name_mm": "စုကလိ",
    "name_zg": "စုကလိ",
    "region_state": "kayin"
  },
  {
    "name_en": "Thandaunggyi",
    "name_mm": "သံတောင်ကြီး",
    "name_zg": "သံေတာင္ႀကီး",
    "region_state": "kayin"
  },
  {
    "name_en": "Wawlaymyaing",
    "name_mm": "ဝေါလေမြိုင်",
    "name_zg": "ေဝါေလၿမိဳင္",
    "region_state": "kayin"
  },
  {
    "name_en": "Aunglan",
    "name_mm": "အောင်လံ",
    "name_zg": "ေအာင္လံ",
    "region_state": "magway"
  },
  {
    "name_en": "Chauck",
    "name_mm": "ချောက်",
    "name_zg": "ေခ်ာက္",
    "region_state": "magway"
  },
  {
    "name_en": "Gangaw",
    "name_mm": "ဂန့်ဂေါ",
    "name_zg": "ဂန႔္ေဂါ",
    "region_state": "magway"
  },
  {
    "name_en": "Kamma",
    "name_mm": "ကမ္မ",
    "name_zg": "ကမၼ",
    "region_state": "magway"
  },
  {
    "name_en": "Kyaukhtu",
    "name_mm": "ကျောက်ထု",
    "name_zg": "ေက်ာက္ထု",
    "region_state": "magway"
  },
  {
    "name_en": "Magway",
    "name_mm": "မကွေး",
    "name_zg": "မေကြး",
    "region_state": "magway"
  },
  {
    "name_en": "Minbu",
    "name_mm": "မင်းဘူး",
    "name_zg": "မင္းဘူး",
    "region_state": "magway"
  },
  {
    "name_en": "Mindon",
    "name_mm": "မင်းတုန်း",
    "name_zg": "မင္းတုန္း",
    "region_state": "magway"
  },
  {
    "name_en": "Minhla",
    "name_mm": "မင်းလှ",
    "name_zg": "မင္းလွ",
    "region_state": "magway"
  },
  {
    "name_en": "Myaing",
    "name_mm": "မြိုင်",
    "name_zg": "ၿမိဳင္",
    "region_state": "magway"
  },
  {
    "name_en": "Myothit",
    "name_mm": "မြို့သစ်",
    "name_zg": "ၿမိဳ႕သစ္",
    "region_state": "magway"
  },
  {
    "name_en": "Natmauk",
    "name_mm": "နတ်မောက်",
    "name_zg": "နတ္ေမာက္",
    "region_state": "magway"
  },
  {
    "name_en": "Ngape",
    "name_mm": "ငဖဲ",
    "name_zg": "ငဖဲ",
    "region_state": "magway"
  },
  {
    "name_en": "Pakokku",
    "name_mm": "ပခုက္ကူ",
    "name_zg": "ပခုကၠဴ",
    "region_state": "magway"
  },
  {
    "name_en": "Pauk",
    "name_mm": "ပေါက်",
    "name_zg": "ေပါက္",
    "region_state": "magway"
  },
  {
    "name_en": "Pwintbyu",
    "name_mm": "ပွင့်ဖြူ",
    "name_zg": "ပြင့္ျဖဴ",
    "region_state": "magway"
  },
  {
    "name_en": "Salin",
    "name_mm": "စလင်း",
    "name_zg": "စလင္း",
    "region_state": "magway"
  },
  {
    "name_en": "Saw",
    "name_mm": "ဆော",
    "name_zg": "ေဆာ",
    "region_state": "magway"
  },
  {
    "name_en": "Seikphyu",
    "name_mm": "ဆိပ်ဖြူ",
    "name_zg": "ဆိပ္ျဖဴ",
    "region_state": "magway"
  },
  {
    "name_en": "Sidoktaya",
    "name_mm": "စေတုတ္တရာ",
    "name_zg": "ေစတုတၱရာ",
    "region_state": "magway"
  },
  {
    "name_en": "Sinbaungwe",
    "name_mm": "ဆင်ပေါင်ဝဲ",
    "name_zg": "ဆင္ေပါင္ဝဲ",
    "region_state": "magway"
  },
  {
    "name_en": "Taungdwingyi",
    "name_mm": "တောင်တွင်းကြီး",
    "name_zg": "ေတာင္တြင္းႀကီး",
    "region_state": "magway"
  },
  {
    "name_en": "Thayet",
    "name_mm": "သရက်",
    "name_zg": "သရက္",
    "region_state": "magway"
  },
  {
    "name_en": "Tilin",
    "name_mm": "ထီးလင်း",
    "name_zg": "ထီးလင္း",
    "region_state": "magway"
  },
  {
    "name_en": "Yenangyaung",
    "name_mm": "ရေနံချောင်း",
    "name_zg": "ေရနံေခ်ာင္း",
    "region_state": "magway"
  },
  {
    "name_en": "Yesagyo",
    "name_mm": "ရေစကြို",
    "name_zg": "ေရစႀကိဳ",
    "region_state": "magway"
  },
  {
    "name_en": "Amarapura",
    "name_mm": "အမရပူရ",
    "name_zg": "အမရပူရ",
    "region_state": "mandalay"
  },
  {
    "name_en": "Aungmyethazan",
    "name_mm": "အောင်မြေသာဇံ",
    "name_zg": "ေအာင္ေျမသာဇံ",
    "region_state": "mandalay"
  },
  {
    "name_en": "Chanayethazan",
    "name_mm": "ချမ်းအေးသာစံ",
    "name_zg": "ခ်မ္းေအးသာစံ",
    "region_state": "mandalay"
  },
  {
    "name_en": "Chanmyathazi",
    "name_mm": "ချမ်းမြသာစည်",
    "name_zg": "ခ်မ္းျမသာစည္",
    "region_state": "mandalay"
  },
  {
    "name_en": "Kyaukpadaung",
    "name_mm": "ကျောက်ပန်းတောင်း",
    "name_zg": "ေက်ာက္ပန္းေတာင္း",
    "region_state": "mandalay"
  },
  {
    "name_en": "Kyaukse",
    "name_mm": "ကျောက်ဆည်",
    "name_zg": "ေက်ာက္ဆည္",
    "region_state": "mandalay"
  },
  {
    "name_en": "Madaya",
    "name_mm": "မတ္တရာ",
    "name_zg": "မတၱရာ",
    "region_state": "mandalay"
  },
  {
    "name_en": "Mahaaungmye",
    "name_mm": "မဟာအောင်မြေ",
    "name_zg": "မဟာေအာင္ေျမ",
    "region_state": "mandalay"
  },
  {
    "name_en": "Mahlaing",
    "name_mm": "မလှိုင်",
    "name_zg": "မလွိုင္",
    "region_state": "mandalay"
  },
  {
    "name_en": "Meiktila",
    "name_mm": "မိတ္ထီလာ",
    "name_zg": "မိတၳီလာ",
    "region_state": "mandalay"
  },
  {
    "name_en": "Mogok",
    "name_mm": "မိုးကုတ်",
    "name_zg": "မိုးကုတ္",
    "region_state": "mandalay"
  },
  {
    "name_en": "Myingyan",
    "name_mm": "မြင်းခြံ",
    "name_zg": "ျမင္းၿခံ",
    "region_state": "mandalay"
  },
  {
    "name_en": "Myittha",
    "name_mm": "မြစ်သား",
    "name_zg": "ျမစ္သား",
    "region_state": "mandalay"
  },
  {
    "name_en": "Natogyi",
    "name_mm": "နွားထိုးကြီး",
    "name_zg": "နထိုးႀကီး",
    "region_state": "mandalay"
  },
  {
    "name_en": "Nganzun",
    "name_mm": "ငန်းဇွန်",
    "name_zg": "ငန္းဇြန္",
    "region_state": "mandalay"
  },
  {
    "name_en": "Ngathayauk",
    "name_mm": "ငါ့သရောက်",
    "name_zg": "ငါ့သေရာက္",
    "region_state": "mandalay"
  },
  {
    "name_en": "Nyaung U",
    "name_mm": "ညောင်ဦး",
    "name_zg": "ေညာင္ဦး",
    "region_state": "mandalay"
  },
  {
    "name_en": "Patheingyi",
    "name_mm": "ပုသိမ်ကြီး",
    "name_zg": "ပုသိမ္ႀကီး",
    "region_state": "mandalay"
  },
  {
    "name_en": "Pyawbwe",
    "name_mm": "ပျော်ဘွယ်",
    "name_zg": "ေပ်ာ္ဘြယ္",
    "region_state": "mandalay"
  },
  {
    "name_en": "Pyigyidagun",
    "name_mm": "ပြည်ကြီးတံခွန်",
    "name_zg": "ျပည္ႀကီးတံခြန္",
    "region_state": "mandalay"
  },
  {
    "name_en": "Pyinoolwin",
    "name_mm": "ပြင်ဦးလွင်",
    "name_zg": "ျပင္ဦးလြင္",
    "region_state": "mandalay"
  },
  {
    "name_en": "Singu",
    "name_mm": "စဥ့်ကူး",
    "name_zg": "စဥ္ကူး",
    "region_state": "mandalay"
  },
  {
    "name_en": "Sintgaing",
    "name_mm": "စဉ့်ကိုင်",
    "name_zg": "စဉ့္ကိုင္",
    "region_state": "mandalay"
  },
  {
    "name_en": "Tada U",
    "name_mm": "တံတားဦး",
    "name_zg": "တံတားဦး",
    "region_state": "mandalay"
  },
  {
    "name_en": "Tagaung",
    "name_mm": "တကောင်း",
    "name_zg": "တေကာင္း",
    "region_state": "mandalay"
  },
  {
    "name_en": "Thabeikkyin",
    "name_mm": "သပိတ်ကျင်း",
    "name_zg": "သပိတ္က်င္း",
    "region_state": "mandalay"
  },
  {
    "name_en": "Thaungtha",
    "name_mm": "တောင်သာ",
    "name_zg": "ေတာင္သာ",
    "region_state": "mandalay"
  },
  {
    "name_en": "Thazi",
    "name_mm": "သာစည်",
    "name_zg": "သာစည္",
    "region_state": "mandalay"
  },
  {
    "name_en": "Wundwin",
    "name_mm": "ဝမ်းတွင်း",
    "name_zg": "ဝမ္းတြင္း",
    "region_state": "mandalay"
  },
  {
    "name_en": "Yamethin",
    "name_mm": "ရမည်းသင်း",
    "name_zg": "ရမဲသင္း",
    "region_state": "mandalay"
  },
  {
    "name_en": "Bilin",
    "name_mm": "ဘီးလင်း",
    "name_zg": "ဘီးလင္း",
    "region_state": "mon"
  },
  {
    "name_en": "Chaungzon",
    "name_mm": "ချောင်းဆုံ",
    "name_zg": "ေခ်ာင္းဆုံ",
    "region_state": "mon"
  },
  {
    "name_en": "Khawzar",
    "name_mm": "ခေါဇာ",
    "name_zg": "ေခါဇာ",
    "region_state": "mon"
  },
  {
    "name_en": "Kyaikkhami",
    "name_mm": "ကျိုက္ခမီ",
    "name_zg": "က်ိဳကၡမီ",
    "region_state": "mon"
  },
  {
    "name_en": "Kyaikmaraw",
    "name_mm": "ကျိုက်မရော",
    "name_zg": "က်ိဳက္မေရာ",
    "region_state": "mon"
  },
  {
    "name_en": "Kyaikto",
    "name_mm": "ကျိုက်ထို",
    "name_zg": "က်ိဳက္ထို",
    "region_state": "mon"
  },
  {
    "name_en": "Lamine",
    "name_mm": "လမိုင်း",
    "name_zg": "လမိုင္း",
    "region_state": "mon"
  },
  {
    "name_en": "Mawlamyine",
    "name_mm": "မော်လမြိုင်",
    "name_zg": "ေမာ္လၿမိဳင္",
    "region_state": "mon"
  },
  {
    "name_en": "Mottama",
    "name_mm": "မုတ္တမ",
    "name_zg": "မုတၱမ",
    "region_state": "mon"
  },
  {
    "name_en": "Mudon",
    "name_mm": "မုဒုံ",
    "name_zg": "မုဒုံ",
    "region_state": "mon"
  },
  {
    "name_en": "Paung",
    "name_mm": "ပေါင်",
    "name_zg": "ေပါင္",
    "region_state": "mon"
  },
  {
    "name_en": "Suvannawadi",
    "name_mm": "သုဝဏ္ဏဝတီ",
    "name_zg": "သုဝဏၰဝတီ",
    "region_state": "mon"
  },
  {
    "name_en": "Thanbyuzayat",
    "name_mm": "သံဖြူဇရပ်",
    "name_zg": "သံျဖဴဇရပ္",
    "region_state": "mon"
  },
  {
    "name_en": "Thaton",
    "name_mm": "သထုံ",
    "name_zg": "သထုံ",
    "region_state": "mon"
  },
  {
    "name_en": "Ye",
    "name_mm": "ရေး",
    "name_zg": "ေရး",
    "region_state": "mon"
  },
  {
    "name_en": "Zingyeik",
    "name_mm": "ဇင်းကျိုက်",
    "name_zg": "ဇင္းက်ိဳက္",
    "region_state": "mon"
  },
  {
    "name_en": "Dekkhinathiri",
    "name_mm": "ဒက္ခိဏသီရိ\t",
    "name_zg": "ဒကၡိဏသီရိ\t",
    "region_state": "naypyitaw"
  },
  {
    "name_en": "Lewe",
    "name_mm": "လယ်ဝေး",
    "name_zg": "လယ္ေဝး",
    "region_state": "naypyitaw"
  },
  {
    "name_en": "Ottarathiri",
    "name_mm": "ဥတ္တရသီရိ",
    "name_zg": "ဥတၱရသီရိ",
    "region_state": "naypyitaw"
  },
  {
    "name_en": "Pobbathiri",
    "name_mm": "ပုဗ္ဗသီရိ",
    "name_zg": "ပုဗၺသီရိ",
    "region_state": "naypyitaw"
  },
  {
    "name_en": "Pyinmana",
    "name_mm": "ပျဉ်းမနား",
    "name_zg": "ပ်ဥ္းမနား",
    "region_state": "naypyitaw"
  },
  {
    "name_en": "Tatkon",
    "name_mm": "တပ်ကုန်း",
    "name_zg": "တပ္ကုန္း",
    "region_state": "naypyitaw"
  },
  {
    "name_en": "Zabuthiri",
    "name_mm": "ဇမ္ဗူသီရိ",
    "name_zg": "ဇမၺဴသီရိ",
    "region_state": "naypyitaw"
  },
  {
    "name_en": "Zeyarthiri",
    "name_mm": "ဇေယျာသီရိ",
    "name_zg": "ေဇယ်ာသီရိ",
    "region_state": "naypyitaw"
  },
  {
    "name_en": "Ann",
    "name_mm": "အမ်း",
    "name_zg": "အမ္း",
    "region_state": "rakhine"
  },
  {
    "name_en": "Buthidaung",
    "name_mm": "ဘူးသီးတောင်",
    "name_zg": "ဘူးသီးေတာင္",
    "region_state": "rakhine"
  },
  {
    "name_en": "Gaw",
    "name_mm": "ဂေါ",
    "name_zg": "ေဂါ",
    "region_state": "rakhine"
  },
  {
    "name_en": "Kyaukpyu",
    "name_mm": "ကျောက်ဖြူ",
    "name_zg": "ေက်ာက္ျဖဴ",
    "region_state": "rakhine"
  },
  {
    "name_en": "Kyauktaw",
    "name_mm": "ကျောက်တော်",
    "name_zg": "ေက်ာက္ေတာ္",
    "region_state": "rakhine"
  },
  {
    "name_en": "Kyeintali",
    "name_mm": "ကျိန္တလီ",
    "name_zg": "က်ိႏၲလီ",
    "region_state": "rakhine"
  },
  {
    "name_en": "Maei",
    "name_mm": "မအီ",
    "name_zg": "မအီ",
    "region_state": "rakhine"
  },
  {
    "name_en": "Manaung",
    "name_mm": "မာန်အောင်",
    "name_zg": "မာန္ေအာင္",
    "region_state": "rakhine"
  },
  {
    "name_en": "Maungdaw",
    "name_mm": "မောင်တော",
    "name_zg": "ေမာင္ေတာ",
    "region_state": "rakhine"
  },
  {
    "name_en": "Minbya",
    "name_mm": "မင်းပြား",
    "name_zg": "မင္းျပား",
    "region_state": "rakhine"
  },
  {
    "name_en": "Mrauk U",
    "name_mm": "မြောက်ဦး",
    "name_zg": "ေျမာက္ဦး",
    "region_state": "rakhine"
  },
  {
    "name_en": "Myebon",
    "name_mm": "မြေပုံ",
    "name_zg": "ေျမပုံ",
    "region_state": "rakhine"
  },
  {
    "name_en": "Pauktaw",
    "name_mm": "ပေါက်တော",
    "name_zg": "ေပါက္ေတာ",
    "region_state": "rakhine"
  },
  {
    "name_en": "Ponnagyun",
    "name_mm": "ပုဏ္ဏားကျွန်း",
    "name_zg": "ပုဏၰားကြၽန္း",
    "region_state": "rakhine"
  },
  {
    "name_en": "Ramree",
    "name_mm": "ရမ်းဗြဲ",
    "name_zg": "ရမ္းၿဗဲ",
    "region_state": "rakhine"
  },
  {
    "name_en": "Rathedaung",
    "name_mm": "ရသေ့တောင်",
    "name_zg": "ရေသ့ေတာင္",
    "region_state": "rakhine"
  },
  {
    "name_en": "Sittwe",
    "name_mm": "စစ်တွေ",
    "name_zg": "စစ္ေတြ",
    "region_state": "rakhine"
  },
  {
    "name_en": "Taungpyoletwe",
    "name_mm": "တောင်ပြိုလက်ဝဲ",
    "name_zg": "ေတာင္ၿပိဳလက္ဝဲ",
    "region_state": "rakhine"
  },
  {
    "name_en": "Thandwe",
    "name_mm": "သံတွဲ",
    "name_zg": "သံတြဲ",
    "region_state": "rakhine"
  },
  {
    "name_en": "Toungup",
    "name_mm": "တောင်ကုတ်",
    "name_zg": "ေတာင္ကုတ္",
    "region_state": "rakhine"
  },
  {
    "name_en": "Ayadaw",
    "name_mm": "အရာတော်",
    "name_zg": "အရာေတာ္",
    "region_state": "sagaing"
  },
  {
    "name_en": "Banmauk",
    "name_mm": "ဗန်းမောက်",
    "name_zg": "ဗန္းေမာက္",
    "region_state": "sagaing"
  },
  {
    "name_en": "Budalin",
    "name_mm": "ဘုတလင်",
    "name_zg": "ဘုတလင္",
    "region_state": "sagaing"
  },
  {
    "name_en": "Chaung U",
    "name_mm": "ချောင်းဦး",
    "name_zg": "ေခ်ာင္းဦး",
    "region_state": "sagaing"
  },
  {
    "name_en": "Donhee",
    "name_mm": "ဒုံဟီး",
    "name_zg": "ဒုံဟီး",
    "region_state": "sagaing"
  },
  {
    "name_en": "Hkamti",
    "name_mm": "ခန္တီး",
    "name_zg": "ခႏၲီး",
    "region_state": "sagaing"
  },
  {
    "name_en": "Homalin",
    "name_mm": "ဟုမ္မလင်း",
    "name_zg": "ဟုမၼလင္း",
    "region_state": "sagaing"
  },
  {
    "name_en": "htanparkway",
    "name_mm": "",
    "region_state": "sagaing"
  },
  {
    "name_en": "Indaw",
    "name_mm": "အင်းတော်",
    "name_zg": "အင္းေတာ္",
    "region_state": "sagaing"
  },
  {
    "name_en": "Kale",
    "name_mm": "ကလေး",
    "name_zg": "ကေလး",
    "region_state": "sagaing"
  },
  {
    "name_en": "Kalewa",
    "name_mm": "ကလေး၀",
    "name_zg": "ကေလး၀",
    "region_state": "sagaing"
  },
  {
    "name_en": "Kanbalu",
    "name_mm": "ကန့်ဘလူ",
    "name_zg": "ကန႔္ဘလူ",
    "region_state": "sagaing"
  },
  {
    "name_en": "Kani",
    "name_mm": "ကနီ",
    "name_zg": "ကနီ",
    "region_state": "sagaing"
  },
  {
    "name_en": "Katha",
    "name_mm": "ကသာ",
    "name_zg": "ကသာ",
    "region_state": "sagaing"
  },
  {
    "name_en": "Kawlin",
    "name_mm": "ကောလင်း",
    "name_zg": "ေကာလင္း",
    "region_state": "sagaing"
  },
  {
    "name_en": "Khampat",
    "name_mm": "ခန်းပတ်",
    "name_zg": "ခန္းပတ္",
    "region_state": "sagaing"
  },
  {
    "name_en": "Khin U",
    "name_mm": "ခင်ဦး",
    "name_zg": "ခင္ဦး",
    "region_state": "sagaing"
  },
  {
    "name_en": "Kyaukmyaung",
    "name_mm": "ကျောက်မြောင်း",
    "name_zg": "ေက်ာက္ေျမာင္း",
    "region_state": "sagaing"
  },
  {
    "name_en": "Kyunhla",
    "name_mm": "ကျွန်းလှ",
    "name_zg": "ကြၽန္းလွ",
    "region_state": "sagaing"
  },
  {
    "name_en": "Lahe",
    "name_mm": "လီးဟယ်",
    "name_zg": "လီးဟယ္",
    "region_state": "sagaing"
  },
  {
    "name_en": "Leshi Township",
    "name_mm": "လေရှီး",
    "name_zg": "ေလရွီး",
    "region_state": "sagaing"
  },
  {
    "name_en": "Mawlaik",
    "name_mm": "မော်လိုက်",
    "name_zg": "ေမာ္လိုက္",
    "region_state": "sagaing"
  },
  {
    "name_en": "Mingin",
    "name_mm": "မင်းကင်း",
    "name_zg": "မင္းကင္း",
    "region_state": "sagaing"
  },
  {
    "name_en": "Mobaingluk",
    "name_mm": "",
    "region_state": "sagaing"
  },
  {
    "name_en": "Monywa",
    "name_mm": "မုံရွာ",
    "name_zg": "မုံ႐ြာ",
    "region_state": "sagaing"
  },
  {
    "name_en": "Myaung",
    "name_mm": "မြောင်",
    "name_zg": "ေျမာင္",
    "region_state": "sagaing"
  },
  {
    "name_en": "Myinmu",
    "name_mm": "မြင်းမူ",
    "name_zg": "ျမင္းမူ",
    "region_state": "sagaing"
  },
  {
    "name_en": "Myothit",
    "name_mm": "မြို့သစ်",
    "name_zg": "ၿမိဳ႕သစ္",
    "region_state": "sagaing"
  },
  {
    "name_en": "Nanyun",
    "name_mm": "နန်းယွန်း",
    "name_zg": "နန္းယြန္း",
    "region_state": "sagaing"
  },
  {
    "name_en": "Pale",
    "name_mm": "ပုလဲ",
    "name_zg": "ပုလဲ",
    "region_state": "sagaing"
  },
  {
    "name_en": "Pansaung",
    "name_mm": "ပန်ဆောင်",
    "name_zg": "ပန္ေဆာင္",
    "region_state": "sagaing"
  },
  {
    "name_en": "Paungbyin",
    "name_mm": "ဖောင်းပြင်",
    "name_zg": "ေဖာင္းျပင္",
    "region_state": "sagaing"
  },
  {
    "name_en": "Pinlebu",
    "name_mm": "ပင်လယ်ဘူး",
    "name_zg": "ပင္လယ္ဘူး",
    "region_state": "sagaing"
  },
  {
    "name_en": "Sagaing",
    "name_mm": "စစ်ကိုင်း",
    "name_zg": "စစ္ကိုင္း",
    "region_state": "sagaing"
  },
  {
    "name_en": "Salingyi",
    "name_mm": "ဆားလင်းကြီး",
    "name_zg": "ဆားလင္းႀကီး",
    "region_state": "sagaing"
  },
  {
    "name_en": "Shwebo",
    "name_mm": "ရွှေဘို",
    "name_zg": "ေ႐ႊဘို",
    "region_state": "sagaing"
  },
  {
    "name_en": "sonemara",
    "name_mm": "",
    "region_state": "sagaing"
  },
  {
    "name_en": "Tabayin",
    "name_mm": "ဒီပဲယင်း",
    "name_zg": "ဒီပဲယင္း",
    "region_state": "sagaing"
  },
  {
    "name_en": "Tamu",
    "name_mm": "တမူး",
    "name_zg": "တမူး",
    "region_state": "sagaing"
  },
  {
    "name_en": "Taze",
    "name_mm": "တန့်ဆည်",
    "name_zg": "တန႔္ဆည္",
    "region_state": "sagaing"
  },
  {
    "name_en": "Tigyaing",
    "name_mm": "ထီးချိုင့်",
    "name_zg": "ထီးခ်ိဳင့္",
    "region_state": "sagaing"
  },
  {
    "name_en": "Wetlet",
    "name_mm": "ဝက်လက်",
    "name_zg": "ဝက္လက္",
    "region_state": "sagaing"
  },
  {
    "name_en": "Wuntho",
    "name_mm": "ဝန်းသို",
    "name_zg": "ဝန္းသို",
    "region_state": "sagaing"
  },
  {
    "name_en": "Ye U",
    "name_mm": "ရေဦး",
    "name_zg": "ေရဦး",
    "region_state": "sagaing"
  },
  {
    "name_en": "Yinmabin",
    "name_mm": "ယင်းမာပင်",
    "name_zg": "ယင္းမာပင္",
    "region_state": "sagaing"
  },
  {
    "name_en": "Chinshwehaw",
    "name_mm": "ချင်းရွှေဟော်",
    "name_zg": "ခ်င္းေ႐ႊေဟာ္",
    "region_state": "shan"
  },
  {
    "name_en": "Homane",
    "name_mm": "ဟိုမိန်း",
    "name_zg": "ဟိုမိန္း",
    "region_state": "shan"
  },
  {
    "name_en": "Hopang",
    "name_mm": "ဟိုပန်",
    "name_zg": "ဟိုပန္",
    "region_state": "shan"
  },
  {
    "name_en": "Hopong",
    "name_mm": "ဟိုပုန်း",
    "name_zg": "ဟိုပုန္း",
    "region_state": "shan"
  },
  {
    "name_en": "Hsenwi",
    "name_mm": "သိန္နီ",
    "name_zg": "သိႏၷီ",
    "region_state": "shan"
  },
  {
    "name_en": "Hsi Hseng",
    "name_mm": "ဆီဆိုင်",
    "name_zg": "ဆီဆိုင္",
    "region_state": "shan"
  },
  {
    "name_en": "Hsipaw",
    "name_mm": "သီပေါ",
    "name_zg": "သီေပါ",
    "region_state": "shan"
  },
  {
    "name_en": "Indaw",
    "name_mm": "အင်တော",
    "name_zg": "အင္ေတာ",
    "region_state": "shan"
  },
  {
    "name_en": "Kalaw",
    "name_mm": "ကလော",
    "name_zg": "ကေလာ",
    "region_state": "shan"
  },
  {
    "name_en": "Karli",
    "name_mm": "ကာလိ",
    "name_zg": "ကာလိ",
    "region_state": "shan"
  },
  {
    "name_en": "Kengtaung",
    "name_mm": "ကျိုင်းတောင်း",
    "name_zg": "က်ိဳင္းေတာင္း",
    "region_state": "shan"
  },
  {
    "name_en": "Kengtung",
    "name_mm": "ကျိုင်းတုံ",
    "name_zg": "က်ိဳင္းတုံ",
    "region_state": "shan"
  },
  {
    "name_en": "Kholan",
    "name_mm": "ခိုလမ်",
    "name_zg": "ခိုလမ္",
    "region_state": "shan"
  },
  {
    "name_en": "Konkyan",
    "name_mm": "ကုံးကြမ်း",
    "name_zg": "ကုံးၾကမ္း",
    "region_state": "shan"
  },
  {
    "name_en": "Kunhing",
    "name_mm": "ကွန်ဟိန်း",
    "name_zg": "ကြန္ဟိန္း",
    "region_state": "shan"
  },
  {
    "name_en": "Kunlong",
    "name_mm": "ကွမ်းလုံ",
    "name_zg": "ကြမ္းလုံ",
    "region_state": "shan"
  },
  {
    "name_en": "Kutkai",
    "name_mm": "ကွတ်ခိုင်",
    "name_zg": "ကြတ္ခိုင္",
    "region_state": "shan"
  },
  {
    "name_en": "Kyaing Lap",
    "name_mm": "ကျိုင်းလတ်",
    "name_zg": "က်ိဳင္းလတ္",
    "region_state": "shan"
  },
  {
    "name_en": "Kyaukme",
    "name_mm": "ကျောက်မဲ",
    "name_zg": "ေက်ာက္မဲ",
    "region_state": "shan"
  },
  {
    "name_en": "Kyauktalongyi",
    "name_mm": "ကျောက်တစ်လုံးကြီး",
    "name_zg": "ေက်ာက္တစ္လုံးႀကီး",
    "region_state": "shan"
  },
  {
    "name_en": "Kyethi",
    "name_mm": "ကျေးသီး",
    "name_zg": "ေက်းသီး",
    "region_state": "shan"
  },
  {
    "name_en": "Lai Hka",
    "name_mm": "လဲချား",
    "name_zg": "လဲခ်ား",
    "region_state": "shan"
  },
  {
    "name_en": "Langkho",
    "name_mm": "လင်းခေး",
    "name_zg": "လင္းေခး",
    "region_state": "shan"
  },
  {
    "name_en": "Lashio",
    "name_mm": "လားရှိုး",
    "name_zg": "လားရႈိး",
    "region_state": "shan"
  },
  {
    "name_en": "Laukkaing",
    "name_mm": "လောက်ကိုင်",
    "name_zg": "ေလာက္ကိုင္",
    "region_state": "shan"
  },
  {
    "name_en": "Lawksawk",
    "name_mm": "ရပ်စောက်",
    "name_zg": "ရပ္ေစာက္",
    "region_state": "shan"
  },
  {
    "name_en": "Loilen",
    "name_mm": "လျွိုင်လင်",
    "name_zg": "လြၽိဳင္လင္",
    "region_state": "shan"
  },
  {
    "name_en": "Mabein",
    "name_mm": "မဘိမ်း",
    "name_zg": "မဘိမ္း",
    "region_state": "shan"
  },
  {
    "name_en": "Man Kan",
    "name_mm": "မန်ကတ်",
    "name_zg": "မန္ကတ္",
    "region_state": "shan"
  },
  {
    "name_en": "Manhero",
    "name_mm": "မန်ဟျိုး",
    "name_zg": "မန္ဟ်ိဳး",
    "region_state": "shan"
  },
  {
    "name_en": "Mantong",
    "name_mm": "မန်တုံ",
    "name_zg": "မန္တုံ",
    "region_state": "shan"
  },
  {
    "name_en": "Matman",
    "name_mm": "မက်မန်း",
    "name_zg": "မက္မန္း",
    "region_state": "shan"
  },
  {
    "name_en": "Mawhtike",
    "name_mm": "မော်တိုက်",
    "name_zg": "ေမာ္တိုက္",
    "region_state": "shan"
  },
  {
    "name_en": "Mawkmai",
    "name_mm": "မောက်မယ်",
    "name_zg": "ေမာက္မယ္",
    "region_state": "shan"
  },
  {
    "name_en": "Mine Pauk",
    "name_mm": "မိုင်းပေါက်",
    "name_zg": "မိုင္းေပါက္",
    "region_state": "shan"
  },
  {
    "name_en": "Minekoke",
    "name_mm": "မိုင်းခုပ်",
    "name_zg": "မိုင္းခုပ္",
    "region_state": "shan"
  },
  {
    "name_en": "Minelar",
    "name_mm": "မိုင်းလား",
    "name_zg": "မိုင္းလား",
    "region_state": "shan"
  },
  {
    "name_en": "Minelon",
    "name_mm": "မိုင်းလုံ",
    "name_zg": "မိုင္းလုံ",
    "region_state": "shan"
  },
  {
    "name_en": "Minenaung",
    "name_mm": "မိုင်းနောင်",
    "name_zg": "မိုင္းေနာင္",
    "region_state": "shan"
  },
  {
    "name_en": "Minengaw",
    "name_mm": "မိုင်းငေါ့",
    "name_zg": "မိုင္းေငါ့",
    "region_state": "shan"
  },
  {
    "name_en": "Minesan",
    "name_mm": "မိုင်းစံ",
    "name_zg": "မိုင္းစံ",
    "region_state": "shan"
  },
  {
    "name_en": "Mineyu",
    "name_mm": "မိုင်းယု",
    "name_zg": "မိုင္းယု",
    "region_state": "shan"
  },
  {
    "name_en": "Monehta",
    "name_mm": "မိုင်းထား",
    "name_zg": "မိုင္းထား",
    "region_state": "shan"
  },
  {
    "name_en": "Monekoe",
    "name_mm": "မုံးကိုး",
    "name_zg": "မုံးကိုး",
    "region_state": "shan"
  },
  {
    "name_en": "Mong Hpayak",
    "name_mm": "မိုင်းဖြတ်",
    "name_zg": "မိုင္းျဖတ္",
    "region_state": "shan"
  },
  {
    "name_en": "Mong Hsat",
    "name_mm": "မိုင်းဆတ်",
    "name_zg": "မိုင္းဆတ္",
    "region_state": "shan"
  },
  {
    "name_en": "Mong Hsu",
    "name_mm": "မိုင်းရှူး",
    "name_zg": "မိုင္းရႉး",
    "region_state": "shan"
  },
  {
    "name_en": "Mong Khet",
    "name_mm": "မိုင်းခတ်",
    "name_zg": "မိုင္းခတ္",
    "region_state": "shan"
  },
  {
    "name_en": "Mong Kung",
    "name_mm": "မိုင်းကိုင်",
    "name_zg": "မိုင္းကိုင္",
    "region_state": "shan"
  },
  {
    "name_en": "Mong La",
    "name_mm": "မိုင်းလား",
    "name_zg": "မိုင္းလား",
    "region_state": "shan"
  },
  {
    "name_en": "Mong Nai",
    "name_mm": "မိုးနဲ",
    "name_zg": "မိုးနဲ",
    "region_state": "shan"
  },
  {
    "name_en": "Mong Pan",
    "name_mm": "မိုင်းပန်",
    "name_zg": "မိုင္းပန္",
    "region_state": "shan"
  },
  {
    "name_en": "Mong Ping",
    "name_mm": "မိုင်းပြင်း",
    "name_zg": "မိုင္းျပင္း",
    "region_state": "shan"
  },
  {
    "name_en": "Mong Tong",
    "name_mm": "မိုင်းတုံ",
    "name_zg": "မိုင္းတုံ",
    "region_state": "shan"
  },
  {
    "name_en": "Mong Yang",
    "name_mm": "မိုင်းယန်း",
    "name_zg": "မိုင္းယန္း",
    "region_state": "shan"
  },
  {
    "name_en": "Mong Yawng",
    "name_mm": "မိုင်းယောင်း",
    "name_zg": "မိုင္းေယာင္း",
    "region_state": "shan"
  },
  {
    "name_en": "Mongmao",
    "name_mm": "မိုင်းမော",
    "name_zg": "မိုင္းေမာ",
    "region_state": "shan"
  },
  {
    "name_en": "Mongmit",
    "name_mm": "မိုးမိတ်",
    "name_zg": "မိုးမိတ္",
    "region_state": "shan"
  },
  {
    "name_en": "Mongyai",
    "name_mm": "မိုင်းရယ်",
    "name_zg": "မိုင္းရယ္",
    "region_state": "shan"
  },
  {
    "name_en": "Mu Se",
    "name_mm": "မူဆယ်",
    "name_zg": "မူဆယ္",
    "region_state": "shan"
  },
  {
    "name_en": "Namhkam",
    "name_mm": "နမ့်ခန်း",
    "name_zg": "နမ့္ခန္း",
    "region_state": "shan"
  },
  {
    "name_en": "Namhsan",
    "name_mm": "နမ့်ဆန်",
    "name_zg": "နမ့္ဆန္",
    "region_state": "shan"
  },
  {
    "name_en": "Namphan",
    "name_mm": "နားဖန်း",
    "name_zg": "နားဖန္း",
    "region_state": "shan"
  },
  {
    "name_en": "Namtit",
    "name_mm": "နမ္မတီး",
    "name_zg": "နမၼတီး",
    "region_state": "shan"
  },
  {
    "name_en": "Namtu",
    "name_mm": "နမ္မတူ",
    "name_zg": "နမၼတူ",
    "region_state": "shan"
  },
  {
    "name_en": "Nansang",
    "name_mm": "နမ့်စန်",
    "name_zg": "နမ့္စန္",
    "region_state": "shan"
  },
  {
    "name_en": "Naungtayar",
    "name_mm": "နောင်တရား",
    "name_zg": "ေနာင္တရား",
    "region_state": "shan"
  },
  {
    "name_en": "Nawnghkio",
    "name_mm": "နောင်ချို",
    "name_zg": "ေနာင္ခ်ိဳ",
    "region_state": "shan"
  },
  {
    "name_en": "Nyaungshwe",
    "name_mm": "ညောင်ရွှေ",
    "name_zg": "ေညာင္ေ႐ႊ",
    "region_state": "shan"
  },
  {
    "name_en": "Panglong",
    "name_mm": "ပန်လုံ",
    "name_zg": "ပန္လုံ",
    "region_state": "shan"
  },
  {
    "name_en": "Pangsang",
    "name_mm": "ပန်ဆန်း",
    "name_zg": "ပန္ဆန္း",
    "region_state": "shan"
  },
  {
    "name_en": "Pangwaun",
    "name_mm": "ပန်ယန်း",
    "name_zg": "ပန္ယန္း",
    "region_state": "shan"
  },
  {
    "name_en": "Panlong",
    "name_mm": "ပင်လုံ",
    "name_zg": "ပင္လုံ",
    "region_state": "shan"
  },
  {
    "name_en": "Pansai",
    "name_mm": "ပန်ဆိုင်း",
    "name_zg": "ပန္ဆိုင္း",
    "region_state": "shan"
  },
  {
    "name_en": "Pekon",
    "name_mm": "ဖယ်ခုံ",
    "name_zg": "ဖယ္ခုံ",
    "region_state": "shan"
  },
  {
    "name_en": "Pingdaya",
    "name_mm": "ပင်းတယ",
    "name_zg": "ပင္းတယ",
    "region_state": "shan"
  },
  {
    "name_en": "Pinlaung",
    "name_mm": "ပင်လောင်း",
    "name_zg": "ပင္ေလာင္း",
    "region_state": "shan"
  },
  {
    "name_en": "Ponparkyin",
    "name_mm": "ပုံပါကျင်",
    "name_zg": "ပုံပါက်င္",
    "region_state": "shan"
  },
  {
    "name_en": "Tachileik",
    "name_mm": "တာချီလိတ်",
    "name_zg": "တာခ်ီလိတ္",
    "region_state": "shan"
  },
  {
    "name_en": "Talay",
    "name_mm": "တာလေ",
    "name_zg": "တာေလ",
    "region_state": "shan"
  },
  {
    "name_en": "Tamoenye",
    "name_mm": "တာမိုးညဲ",
    "name_zg": "တာမိုးညဲ",
    "region_state": "shan"
  },
  {
    "name_en": "Tangyan",
    "name_mm": "တန့်ယန်း",
    "name_zg": "တန႔္ယန္း",
    "region_state": "shan"
  },
  {
    "name_en": "Taunggyi",
    "name_mm": "တောင်ကြီး",
    "name_zg": "ေတာင္ႀကီး",
    "region_state": "shan"
  },
  {
    "name_en": "Tontar",
    "name_mm": "တုံတာ",
    "name_zg": "တုံတာ",
    "region_state": "shan"
  },
  {
    "name_en": "Ywangan",
    "name_mm": "ရွာငံ",
    "name_zg": "႐ြာငံ",
    "region_state": "shan"
  },
  {
    "name_en": "Bokpyin",
    "name_mm": "ဘုတ်ပြင်း",
    "name_zg": "ဘုတ္ျပင္း",
    "region_state": "tanintharyi"
  },
  {
    "name_en": "Dawei",
    "name_mm": "ထားဝယ်",
    "name_zg": "ထားဝယ္",
    "region_state": "tanintharyi"
  },
  {
    "name_en": "Kaleinaung",
    "name_mm": "ကလိန်အောင်",
    "name_zg": "ကလိန္းေအာင္",
    "region_state": "tanintharyi"
  },
  {
    "name_en": "Karathuri",
    "name_mm": "ကရသူရိ",
    "name_zg": "ကရသူရိ",
    "region_state": "tanintharyi"
  },
  {
    "name_en": "Kawthoung",
    "name_mm": "ကော့သောင်း",
    "name_zg": "ေကာ့ေသာင္း",
    "region_state": "tanintharyi"
  },
  {
    "name_en": "Khamaukgyi",
    "name_mm": "ခမောက်ကြီး",
    "name_zg": "ခေမာက္ႀကီး",
    "region_state": "tanintharyi"
  },
  {
    "name_en": "Kyunsu",
    "name_mm": "ကျွန်းစု",
    "name_zg": "ကၽြန္းစု",
    "region_state": "tanintharyi"
  },
  {
    "name_en": "Launglon",
    "name_mm": "လောင်းလုံး",
    "name_zg": "ေလာင္းလုံး",
    "region_state": "tanintharyi"
  },
  {
    "name_en": "Myeik",
    "name_mm": "မြိတ်",
    "name_zg": "ၿမိတ္",
    "region_state": "tanintharyi"
  },
  {
    "name_en": "Myitta",
    "name_mm": "မေတ္တာ",
    "name_zg": "ေမတၱာ",
    "region_state": "tanintharyi"
  },
  {
    "name_en": "Palauk",
    "name_mm": "ပလောက်",
    "name_zg": "ပေလာက္",
    "region_state": "tanintharyi"
  },
  {
    "name_en": "Palaw",
    "name_mm": "ပုလော",
    "name_zg": "ပုေလာ",
    "region_state": "tanintharyi"
  },
  {
    "name_en": "Pyigyimandaing",
    "name_mm": "ပြည်ကြီးမဏ္ဍိုင်",
    "name_zg": "ျပည္ႀကီးမ႑ိဳင္",
    "region_state": "tanintharyi"
  },
  {
    "name_en": "Tanintharyi",
    "name_mm": "တနင်္သာရီ",
    "name_zg": "တနသၤာရီ",
    "region_state": "tanintharyi"
  },
  {
    "name_en": "Thayetchaung",
    "name_mm": "သရက်ချောင်း",
    "name_zg": "သရက္ေခ်ာင္း",
    "region_state": "tanintharyi"
  },
  {
    "name_en": "Yebyu",
    "name_mm": "ရေဖြူ",
    "name_zg": "ေရျဖဴ",
    "region_state": "tanintharyi"
  },
  {
    "name_en": "Ahlon",
    "name_mm": "အလုံ",
    "name_zg": "အလုံ",
    "region_state": "yangon"
  },
  {
    "name_en": "Bahan",
    "name_mm": "ဗဟန်း",
    "name_zg": "ဗဟန္း",
    "region_state": "yangon"
  },
  {
    "name_en": "Botataung",
    "name_mm": "ဗိုလ်တထောင်",
    "name_zg": "ဗိုလ္တစ္ေထာင္",
    "region_state": "yangon"
  },
  {
    "name_en": "Cocokyun",
    "name_mm": "ကိုကိုးကျွန်း",
    "name_zg": "ကိုကြန္းကြၽန္း",
    "region_state": "yangon"
  },
  {
    "name_en": "Dagon",
    "name_mm": "ဒ​​​​​ဂုံ",
    "name_zg": "ဒ​​​​​ဂုံ",
    "region_state": "yangon"
  },
  {
    "name_en": "Dagon Seikkan",
    "name_mm": "ဒ​​​​​ဂုံဆိပ်ကမ်း",
    "name_zg": "ဒ​​​​​ဂုံဆိပ္ကမ္း",
    "region_state": "yangon"
  },
  {
    "name_en": "Dala",
    "name_mm": "ဒလ",
    "name_zg": "ဒလ",
    "region_state": "yangon"
  },
  {
    "name_en": "Dawbon",
    "name_mm": "ဒေါပုံ",
    "name_zg": "ေဒါပုံ",
    "region_state": "yangon"
  },
  {
    "name_en": "East Dagon",
    "name_mm": "အရှေ့ဒဂုံ",
    "name_zg": "ေရွ႕ဒဂုံ",
    "region_state": "yangon"
  },
  {
    "name_en": "Hlaing",
    "name_mm": "လှိုင်",
    "name_zg": "လႈိင္",
    "region_state": "yangon"
  },
  {
    "name_en": "Hlaingthaya",
    "name_mm": "လှိုင်သာယာ",
    "name_zg": "လႈိင္သာယာ",
    "region_state": "yangon"
  },
  {
    "name_en": "Hlegu",
    "name_mm": "လှည်းကူး",
    "name_zg": "လွည္းကူး",
    "region_state": "yangon"
  },
  {
    "name_en": "Hmawbi",
    "name_mm": "မှော်ဘီ",
    "name_zg": "ေမွာ္ဘီ",
    "region_state": "yangon"
  },
  {
    "name_en": "Htantabin",
    "name_mm": "ထန်းတပင်",
    "name_zg": "ထန္းထပင္",
    "region_state": "yangon"
  },
  {
    "name_en": "Insein",
    "name_mm": "အင်းစိန်",
    "name_zg": "အင္းစိန္",
    "region_state": "yangon"
  },
  {
    "name_en": "Kamayut",
    "name_mm": "ကမာရွတ်",
    "name_zg": "ကမာ႐ြတ္",
    "region_state": "yangon"
  },
  {
    "name_en": "Kawhmu",
    "name_mm": "ကေ့ာမှူး",
    "name_zg": "ေကာမႉး",
    "region_state": "yangon"
  },
  {
    "name_en": "Kayan",
    "name_mm": "ခရမ်း",
    "name_zg": "ခရမ္း",
    "region_state": "yangon"
  },
  {
    "name_en": "Kungyangon",
    "name_mm": "ကွမ်းခြံကုန်း",
    "name_zg": "ကြမ္းၿခံကုန္း",
    "region_state": "yangon"
  },
  {
    "name_en": "Kyauktada",
    "name_mm": "ကျောက်တံတား",
    "name_zg": "ေက်ာက္တံတား",
    "region_state": "yangon"
  },
  {
    "name_en": "Kyauktan",
    "name_mm": "ကျောက်တန်း",
    "name_zg": "ေက်ာက္တန္း",
    "region_state": "yangon"
  },
  {
    "name_en": "Kyimyindaing",
    "name_mm": "ကြည့်မြင့်တိုင်",
    "name_zg": "ၾကည့္ျမင့္တိုင္",
    "region_state": "yangon"
  },
  {
    "name_en": "Lanmadaw",
    "name_mm": "လမ်းမတော်",
    "name_zg": "လမ္းမေတာ္",
    "region_state": "yangon"
  },
  {
    "name_en": "Latha",
    "name_mm": "လသာ",
    "name_zg": "လသာ",
    "region_state": "yangon"
  },
  {
    "name_en": "Mayangon",
    "name_mm": "မရမ်းကုန်း",
    "name_zg": "မရမ္းကုန္း",
    "region_state": "yangon"
  },
  {
    "name_en": "Mingala Taungnyunt",
    "name_mm": "မင်္ဂလာတောင်ညွှန့်",
    "name_zg": "မဂၤလာေတာင္ၫႊန႔္",
    "region_state": "yangon"
  },
  {
    "name_en": "Mingaladon",
    "name_mm": "မင်္ဂလာဒုံ",
    "name_zg": "မဂၤလာဒုံ",
    "region_state": "yangon"
  },
  {
    "name_en": "North Dagon",
    "name_mm": "မြောက်ဒဂုံ",
    "name_zg": "ေျမာက္ဒဂုံ",
    "region_state": "yangon"
  },
  {
    "name_en": "North Okkalapa",
    "name_mm": "မြောက်ဥက္ကလာပ",
    "name_zg": "ေျမာက္ဥကၠလာပ",
    "region_state": "yangon"
  },
  {
    "name_en": "Pabedan",
    "name_mm": "ပန်းဘဲတန်း",
    "name_zg": "ပန္းပဲတန္း",
    "region_state": "yangon"
  },
  {
    "name_en": "Pazundaung",
    "name_mm": "ပုဇွန်တောင်",
    "name_zg": "ပုဇြန္ေတာင္",
    "region_state": "yangon"
  },
  {
    "name_en": "rural",
    "name_mm": "",
    "region_state": "yangon"
  },
  {
    "name_en": "Sanchaung",
    "name_mm": "စမ်းချောင်း",
    "name_zg": "စမ္းေခ်ာင္း",
    "region_state": "yangon"
  },
  {
    "name_en": "Seikkan",
    "name_mm": "ဆိပ်ကမ်း",
    "name_zg": "ဆိပ္ကမ္း",
    "region_state": "yangon"
  },
  {
    "name_en": "Seikkyi Kanaungto",
    "name_mm": "ဆိပ်ကြီးခနောင်တို",
    "name_zg": "ဆိပ္ႀကီးကေနာင္တို",
    "region_state": "yangon"
  },
  {
    "name_en": "Shwepyitha",
    "name_mm": "ရွှေပြည်သာ",
    "name_zg": "ေ႐ႊျပည္သာ",
    "region_state": "yangon"
  },
  {
    "name_en": "South Dagon",
    "name_mm": "တောင်ဒဂုံ",
    "name_zg": "ေတာင္ဒဂုံ",
    "region_state": "yangon"
  },
  {
    "name_en": "South Okkalapa",
    "name_mm": "တောင်ဥက္ကလာပ",
    "name_zg": "ေတာင္ဥကၠလာပ",
    "region_state": "yangon"
  },
  {
    "name_en": "Tada",
    "name_mm": "",
    "region_state": "yangon"
  },
  {
    "name_en": "Taikkyi",
    "name_mm": "တိုက်ကြီး",
    "name_zg": "တိုက္ႀကီး",
    "region_state": "yangon"
  },
  {
    "name_en": "Tamwe",
    "name_mm": "တာမွေ",
    "name_zg": "တာေမြ",
    "region_state": "yangon"
  },
  {
    "name_en": "Thaketa",
    "name_mm": "သာကေတ",
    "name_zg": "သာေကတ",
    "region_state": "yangon"
  },
  {
    "name_en": "Thanlyin",
    "name_mm": "သန်လျင်",
    "name_zg": "သန္လ်င္",
    "region_state": "yangon"
  },
  {
    "name_en": "Thingangyun",
    "name_mm": "သင်္ကန်းကျွန်း",
    "name_zg": "သကၤန္းကြၽန္း",
    "region_state": "yangon"
  },
  {
    "name_en": "Thongwa",
    "name_mm": "သုံးခွ",
    "region_state": "yangon"
  },
  {
    "name_en": "Twante",
    "name_mm": "တွံတေး",
    "name_zg": "တြံ႕ေတး",
    "region_state": "yangon"
  },
  {
    "name_en": "Yankin",
    "name_mm": "ရန်ကင်း",
    "name_zg": "ရန္ကင္း",
    "region_state": "yangon"
  }
]
